NORAD_CAT_ID,OBJECT_NAME,OBJECT_TYPE,EPOCH,MEAN_MOTION,ECCENTRICITY,INCLINATION,RA_OF_ASC_NODE,ARG_OF_PERICENTER,MEAN_ANOMALY,BSTAR,MEAN_MOTION_DOT,MEAN_MOTION_DDOT,TLE_LINE0,TLE_LINE1,TLE_LINE2,SEMIMAJOR_AXIS,PERIOD,APOGEE,PERIGEE,DECAYED
53870.0,STARLINK-4732,PAYLOAD,2024-01-10 18:32:57,15.08833902,0.0001386,53.2163,205.6356,100.1513,259.9636,2.9994e-05,1.89e-06,0.0,0 STARLINK-4732,1 53870U 22114BE  24010.77288832  .00000189  00000-0  29994-4 0  9990,2 53870  53.2163 205.6356 0001386 100.1513 259.9636 15.08833902 73752,6917.899,95.438,540.723,538.805,0.0
53870.0,STARLINK-4732,PAYLOAD,2024-01-11 19:59:07,15.08844467,0.000136,53.2163,200.878,94.8056,265.3091,0.00010435,1.373e-05,0.0,0 STARLINK-4732,1 53870U 22114BE  24011.83272180  .00001373  00000-0  10435-3 0  9992,2 53870  53.2163 200.8780 0001360  94.8056 265.3091 15.08844467 73915,6917.867,95.437,540.673,538.791,0.0
53870.0,STARLINK-4732,PAYLOAD,2024-01-11 21:34:30,15.08845185,0.0001369,53.2162,200.5805,96.4932,263.6216,0.00011049,1.471e-05,0.0,0 STARLINK-4732,1 53870U 22114BE  24011.89896114  .00001471  00000-0  11049-3 0  9998,2 53870  53.2162 200.5805 0001369  96.4932 263.6216 15.08845185 74468,6917.865,95.437,540.677,538.782,0.0
53870.0,STARLINK-4732,PAYLOAD,2024-01-12 11:52:59,15.08837856,0.0001453,53.2161,197.9056,99.1901,260.9256,6.5317e-05,7.52e-06,0.0,0 STARLINK-4732,1 53870U 22114BE  24012.49512902  .00000752  00000-0  65317-4 0  9994,2 53870  53.2161 197.9056 0001453  99.1901 260.9256 15.08837856 74015,6917.887,95.438,540.757,538.747,0.0
53870.0,STARLINK-4732,PAYLOAD,2024-01-12 19:49:55,15.08835389,0.0001273,53.2166,196.4179,90.8554,269.2584,5.2093e-05,5.41e-06,0.0,0 STARLINK-4732,1 53870U 22114BE  24012.82633207  .00000541  00000-0  52093-4 0  9996,2 53870  53.2166 196.4179 0001273  90.8554 269.2584 15.08835389 74602,6917.894,95.438,540.64,538.879,0.0
53870.0,STARLINK-4732,PAYLOAD,2024-01-13 11:43:46,15.08842239,0.0001248,53.2171,193.4449,88.7841,271.3295,3.066e-05,2e-06,0.0,0 STARLINK-4732,1 53870U 22114BE  24013.48873018  .00000200  00000-0  30660-4 0  9993,2 53870  53.2171 193.4449 0001248  88.7841 271.3295 15.08842239 74708,6917.874,95.437,540.602,538.875,0.0
53870.0,STARLINK-4732,PAYLOAD,2024-01-13 16:29:55,15.08850877,0.0001053,53.216,192.5598,95.9365,264.1747,0.00010486,1.382e-05,0.0,0 STARLINK-4732,1 53870U 22114BE  24013.68744243  .00001382  00000-0  10486-3 0  9997,2 53870  53.2160 192.5598 0001053  95.9365 264.1747 15.08850877 74198,6917.847,95.437,540.441,538.984,0.0
53870.0,STARLINK-4732,PAYLOAD,2024-01-13 21:16:02,15.08874665,0.0001431,53.2171,191.658,103.5894,256.5257,0.00028228,4.212e-05,0.0,0 STARLINK-4732,1 53870U 22114BE  24013.88613929  .00004212  00000-0  28228-3 0  9993,2 53870  53.2171 191.6580 0001431 103.5894 256.5257 15.08874665 74220,6917.774,95.435,540.629,538.65,0.0
53870.0,STARLINK-4732,PAYLOAD,2024-01-14 14:45:18,15.08843436,0.0001207,53.2173,188.3898,81.8766,278.2363,0.00011508,1.544e-05,0.0,0 STARLINK-4732,1 53870U 22114BE  24014.61480111  .00001544  00000-0  11508-3 0  9998,2 53870  53.2173 188.3898 0001207  81.8766 278.2363 15.08843436 74876,6917.87,95.437,540.57,538.9,0.0
53870.0,STARLINK-4732,PAYLOAD,2024-01-14 17:56:05,15.0884313,0.0001197,53.2168,187.7947,87.03,273.0829,0.00010855,1.44e-05,0.0,0 STARLINK-4732,1 53870U 22114BE  24014.74728095  .00001440  00000-0  10855-3 0  9997,2 53870  53.2168 187.7947 0001197  87.0300 273.0829 15.08843130 74352,6917.871,95.437,540.564,538.908,0.0
53870.0,STARLINK-4732,PAYLOAD,2024-01-15 14:36:06,15.08848072,0.0001197,53.2167,183.9296,87.6971,272.4159,-0.00016645,-2.937e-05,0.0,0 STARLINK-4732,1 53870U 22114BE  24015.60840508 -.00002937  00000-0 -16645-3 0  9994,2 53870  53.2167 183.9296 0001197  87.6971 272.4159 15.08848072 75020,6917.856,95.437,540.549,538.893,0.0
53870.0,STARLINK-4732,PAYLOAD,2024-01-15 17:46:52,15.08851128,0.0001129,53.2164,183.3334,90.1506,269.9615,-0.00016116,-2.853e-05,0.0,0 STARLINK-4732,1 53870U 22114BE  24015.74088179 -.00002853  00000-0 -16116-3 0  9997,2 53870  53.2164 183.3334 0001129  90.1506 269.9615 15.08851128 75048,6917.846,95.437,540.492,538.93,0.0
53870.0,STARLINK-4732,PAYLOAD,2024-01-16 11:16:07,15.08828995,0.0001243,53.2157,180.0631,95.5892,264.5242,3.8068e-05,3.18e-06,0.0,0 STARLINK-4732,1 53870U 22114BE  24016.46952931  .00000318  00000-0  38068-4 0  9996,2 53870  53.2157 180.0631 0001243  95.5892 264.5242 15.08828995 74613,6917.914,95.438,540.639,538.919,0.0
53870.0,STARLINK-4732,PAYLOAD,2024-01-16 14:26:53,15.08829319,0.0001242,53.2157,179.4683,96.8776,263.2358,3.7468e-05,3.08e-06,0.0,0 STARLINK-4732,1 53870U 22114BE  24016.60200984  .00000308  00000-0  37468-4 0  9998,2 53870  53.2157 179.4683 0001242  96.8776 263.2358 15.08829319 75173,6917.913,95.438,540.637,538.919,0.0
53870.0,STARLINK-4732,PAYLOAD,2024-01-16 17:37:39,15.08828603,0.0001279,53.216,178.8739,95.0425,265.0713,9.7871e-05,1.27e-05,0.0,0 STARLINK-4732,1 53870U 22114BE  24016.73448927  .00001270  00000-0  97871-4 0  9996,2 53870  53.2160 178.8739 0001279  95.0425 265.0713 15.08828603 75196,6917.915,95.438,540.665,538.895,0.0
53870.0,STARLINK-4732,PAYLOAD,2024-01-17 14:17:40,15.08834056,0.000124,53.2161,175.0083,92.1414,267.972,7.3925e-05,8.89e-06,0.0,0 STARLINK-4732,1 53870U 22114BE  24017.59561166  .00000889  00000-0  73925-4 0  9991,2 53870  53.2161 175.0083 0001240  92.1414 267.9720 15.08834056 75325,6917.899,95.438,540.621,538.906,0.0
53870.0,STARLINK-4732,PAYLOAD,2024-01-17 15:53:03,15.08834983,0.0001241,53.2161,174.711,91.2584,268.855,8.0726e-05,9.97e-06,0.0,0 STARLINK-4732,1 53870U 22114BE  24017.66185123  .00000997  00000-0  80726-4 0  9991,2 53870  53.2161 174.7110 0001241  91.2584 268.8550 15.08834983 74791,6917.896,95.438,540.619,538.902,0.0
53870.0,STARLINK-4732,PAYLOAD,2024-01-18 10:57:44,15.08806,9.4e-05,53.2166,171.1422,337.6161,22.479,-0.00014298,-2.56e-05,0.0,0 STARLINK-4732,1 53870U 22114BE  24018.45676199 -.00002560  00000-0 -14298-3 0  9997,2 53870  53.2166 171.1422 0000940 337.6161  22.4790 15.08806000 74919,6917.984,95.44,540.5,539.199,0.0
53870.0,STARLINK-4732,PAYLOAD,2024-01-18 14:08:32,15.08786611,9.37e-05,53.2165,170.5481,76.4279,283.6818,-0.00031023,-5.214e-05,0.0,0 STARLINK-4732,1 53870U 22114BE  24018.58926114 -.00005214  00000-0 -31023-3 0  9990,2 53870  53.2165 170.5481 0000937  76.4279 283.6818 15.08786611 75479,6918.044,95.441,540.557,539.26,0.0
53870.0,STARLINK-4732,PAYLOAD,2024-01-18 17:19:16,15.08811603,0.0001217,53.2173,169.9542,81.0198,279.0931,-8.0621e-05,-1.57e-05,0.0,0 STARLINK-4732,1 53870U 22114BE  24018.72172363 -.00001570  00000-0 -80621-4 0  9995,2 53870  53.2173 169.9542 0001217  81.0198 279.0931 15.08811603 75499,6917.967,95.439,540.674,538.99,0.0
53870.0,STARLINK-4732,PAYLOAD,2024-01-19 09:13:06,15.08845501,0.0001326,53.2169,166.9778,91.1267,268.9877,0.00012912,1.768e-05,0.0,0 STARLINK-4732,1 53870U 22114BE  24019.38409863  .00001768  00000-0  12912-3 0  9990,2 53870  53.2169 166.9778 0001326  91.1267 268.9877 15.08845501 75054,6917.864,95.437,540.646,538.811,0.0
53870.0,STARLINK-4732,PAYLOAD,2024-01-19 13:59:15,15.08849954,0.000132,53.2166,166.0909,76.5366,283.5773,0.00019014,2.74e-05,0.0,0 STARLINK-4732,1 53870U 22114BE  24019.58281322  .00002740  00000-0  19014-3 0  9991,2 53870  53.2166 166.0909 0001320  76.5366 283.5773 15.08849954 75626,6917.85,95.437,540.628,538.802,0.0
53870.0,STARLINK-4732,PAYLOAD,2024-01-19 17:10:01,15.08852346,0.0001766,53.2179,165.4966,55.3237,304.7921,0.00027589,4.107e-05,0.0,0 STARLINK-4732,1 53870U 22114BE  24019.71529079  .00004107  00000-0  27589-3 0  9995,2 53870  53.2179 165.4966 0001766  55.3237 304.7921 15.08852346 75105,6917.843,95.437,540.929,538.486,0.0
53870.0,STARLINK-4732,PAYLOAD,2024-01-20 13:50:03,15.08817355,0.0001398,53.2186,161.628,82.2793,277.8358,0.00042302,6.447e-05,0.0,0 STARLINK-4732,1 53870U 22114BE  24020.57642917  .00006447  00000-0  42302-3 0  9997,2 53870  53.2186 161.6280 0001398  82.2793 277.8358 15.08817355 75775,6917.95,95.439,540.782,538.847,0.0
53870.0,STARLINK-4732,PAYLOAD,2024-01-20 18:36:12,15.08822128,0.0001222,53.2174,160.7349,90.1169,269.9963,0.00041904,6.384e-05,0.0,0 STARLINK-4732,1 53870U 22114BE  24020.77514742  .00006384  00000-0  41904-3 0  9990,2 53870  53.2174 160.7349 0001222  90.1169 269.9963 15.08822128 75261,6917.935,95.439,540.645,538.955,0.0
53870.0,STARLINK-4732,PAYLOAD,2024-01-21 13:40:49,15.08849043,0.0001502,53.2158,157.1694,73.0836,287.032,-7.6346e-05,-1.503e-05,0.0,0 STARLINK-4732,1 53870U 22114BE  24021.57002120 -.00001503  00000-0 -76346-4 0  9990,2 53870  53.2158 157.1694 0001502  73.0836 287.0320 15.08849043 75384,6917.853,95.437,540.757,538.679,0.0
53870.0,STARLINK-4732,PAYLOAD,2024-01-21 15:16:12,15.08852954,0.0001601,53.2181,156.8718,79.8544,280.2629,-8.3586e-05,-1.619e-05,0.0,0 STARLINK-4732,1 53870U 22114BE  24021.63625850 -.00001619  00000-0 -83586-4 0  9990,2 53870  53.2181 156.8718 0001601  79.8544 280.2629 15.08852954 75936,6917.841,95.437,540.813,538.598,0.0
53870.0,STARLINK-4732,PAYLOAD,2024-01-22 15:06:59,15.08847249,0.0001412,53.2175,152.412,116.5267,243.587,7.3382e-05,8.8e-06,0.0,0 STARLINK-4732,1 53870U 22114BE  24022.62985379  .00000880  00000-0  73382-4 0  9995,2 53870  53.2175 152.4120 0001412 116.5267 243.5870 15.08847249 75547,6917.858,95.437,540.7,538.746,0.0
53870.0,STARLINK-4732,PAYLOAD,2024-01-23 11:47:01,15.08836931,0.000157,53.2184,148.5453,91.2294,268.8878,-1.4188e-05,-5.14e-06,0.0,0 STARLINK-4732,1 53870U 22114BE  24023.49098513 -.00000514  00000-0 -14188-4 0  9991,2 53870  53.2184 148.5453 0001570  91.2294 268.8878 15.08836931 75674,6917.89,95.438,540.841,538.669,0.0
53870.0,STARLINK-4732,PAYLOAD,2024-01-23 14:57:47,15.08833484,0.0001486,53.2175,147.9506,83.8362,276.28,-4.2226e-05,-9.6e-06,0.0,0 STARLINK-4732,1 53870U 22114BE  24023.62346840 -.00000960  00000-0 -42226-4 0  9994,2 53870  53.2175 147.9506 0001486  83.8362 276.2800 15.08833484 76236,6917.9,95.438,540.793,538.737,0.0
